[{"OBJECT_NAME":"HONGHU 2","OBJECT_ID":"2023-193C","EPOCH":"2026-03-09T23:21:07.139520","MEAN_MOTION":15.21543878,"ECCENTRICITY":0.00399876,"INCLINATION":97.2779,"RA_OF_ASC_NODE":62.3901,"ARG_OF_PERICENTER":264.1736,"MEAN_ANOMALY":95.4941,"EPHEMERIS_TYPE":0,"CLASSIFICATION_TYPE":"U","NORAD_CAT_ID":58555,"ELEMENT_SET_NO":999,"REV_AT_EPOCH":8691,"BSTAR":0.0061775359,"MEAN_MOTION_DOT":0.00144707,"MEAN_MOTION_DDOT":0},{"OBJECT_NAME":"STARLINK-36530","OBJECT_ID":"2026-012X","EPOCH":"2026-03-09T23:11:53.642112","MEAN_MOTION":15.2758864,"ECCENTRICITY":0.0001553,"INCLINATION":43.0006,"RA_OF_ASC_NODE":312.877,"ARG_OF_PERICENTER":280.4095,"MEAN_ANOMALY":79.6581,"EPHEMERIS_TYPE":0,"CLASSIFICATION_TYPE":"U","NORAD_CAT_ID":67514,"ELEMENT_SET_NO":999,"REV_AT_EPOCH":780,"BSTAR":0.00092126644,"MEAN_MOTION_DOT":0.00025183,"MEAN_MOTION_DDOT":0}]
